start=new Date('2022-04-12T00:00:00.000Z').valueOf();
sats=[{"SITE":"AFETR","REF_FRAME":"TEME","TLE_LINE1":"1 44942U 20001AE  22101.73704247  .00002869  00000-0  21145-3 0  9997","GP_ID":"201014326","CENTER_NAME":"EARTH","COUNTRY_CODE":"US","MEAN_ANOMALY":"299.9493","INCLINATION":"53.0544","FILE":"3397723","DECAY_DATE":null,"SEMIMAJOR_AXIS":"6925.354","PERIAPSIS":"546.182","NORAD_CAT_ID":"44942","MEAN_MOTION_DDOT":"0.0000000000000","ELEMENT_SET_NO":"999","TIME_SYSTEM":"UTC","OBJECT_TYPE":"PAYLOAD","EPHEMERIS_TYPE":"0","BSTAR":"0.00021145000000","RA_OF_ASC_NODE":"256.9414","EPOCH":"2022-04-11T17:41:20.469408","MEAN_MOTION":"15.06398139","ARG_OF_PERICENTER":"60.1645","OBJECT_ID":"2020-001AE","PERIOD":"95.592","MEAN_ELEMENT_THEORY":"SGP4","TLE_LINE2":"2 44942  53.0544 256.9414 0001498  60.1645 299.9493 15.06398139124907","APOAPSIS":"548.257","ECCENTRICITY":"0.00014980","LAUNCH_DATE":"2020-01-07","OBJECT_NAME":"STARLINK-1096","RCS_SIZE":"LARGE","REV_AT_EPOCH":"12490","MEAN_MOTION_DOT":"0.00002869","CLASSIFICATION_TYPE":"U"},{"SEMIMAJOR_AXIS":"6925.382","PERIAPSIS":"546.230","INCLINATION":"53.0538","MEAN_ANOMALY":"296.7221","COUNTRY_CODE":"US","DECAY_DATE":null,"FILE":"3397723","CENTER_NAME":"EARTH","GP_ID":"201014576","REF_FRAME":"TEME","SITE":"AFETR","TLE_LINE1":"1 44943U 20001AF  22101.84762662 -.00001574  00000-0 -86848-4 0  9991","RA_OF_ASC_NODE":"256.4528","EPHEMERIS_TYPE":"0","OBJECT_TYPE":"PAYLOAD","BSTAR":"-0.00008684800000","ELEMENT_SET_NO":"999","TIME_SYSTEM":"UTC","MEAN_MOTION_DDOT":"0.0000000000000","NORAD_CAT_ID":"44943","TLE_LINE2":"2 44943  53.0538 256.4528 0001468  63.3918 296.7221 15.06389130124913","ECCENTRICITY":"0.00014680","APOAPSIS":"548.264","MEAN_MOTION":"15.06389130","MEAN_ELEMENT_THEORY":"SGP4","PERIOD":"95.593","OBJECT_ID":"2020-001AF","ARG_OF_PERICENTER":"63.3918","EPOCH":"2022-04-11T20:20:34.939968","CLASSIFICATION_TYPE":"U","MEAN_MOTION_DOT":"-0.00001574","RCS_SIZE":"LARGE","OBJECT_NAME":"STARLINK-1100","REV_AT_EPOCH":"12491","LAUNCH_DATE":"2020-01-07"},{"RA_OF_ASC_NODE":"256.5316","EPHEMERIS_TYPE":"0","OBJECT_TYPE":"PAYLOAD","BSTAR":"0.00001393500000","ELEMENT_SET_NO":"999","TIME_SYSTEM":"UTC","MEAN_MOTION_DDOT":"0.0000000000000","NORAD_CAT_ID":"44944","PERIAPSIS":"546.143","SEMIMAJOR_AXIS":"6925.375","INCLINATION":"53.0548","MEAN_ANOMALY":"294.2762","COUNTRY_CODE":"US","DECAY_DATE":null,"FILE":"3397723","CENTER_NAME":"EARTH","GP_ID":"201015328","REF_FRAME":"TEME","SITE":"AFETR","TLE_LINE1":"1 44944U 20001AG  22101.82920245 -.00000074  00000-0  13935-4 0  9993","CLASSIFICATION_TYPE":"U","MEAN_MOTION_DOT":"-0.00000074","RCS_SIZE":"LARGE","OBJECT_NAME":"STARLINK-1108","REV_AT_EPOCH":"12491","LAUNCH_DATE":"2020-01-07","TLE_LINE2":"2 44944  53.0548 256.5316 0001584  65.8392 294.2762 15.06391231124911","ECCENTRICITY":"0.00015840","APOAPSIS":"548.337","MEAN_MOTION":"15.06391231","PERIOD":"95.593","MEAN_ELEMENT_THEORY":"SGP4","OBJECT_ID":"2020-001AG","ARG_OF_PERICENTER":"65.8392","EPOCH":"2022-04-11T19:54:03.091680"},{"TLE_LINE1":"1 44945U 20001AH  22101.79232947  .00001762  00000-0  13715-3 0  9994","SITE":"AFETR","REF_FRAME":"TEME","GP_ID":"201015079","CENTER_NAME":"EARTH","FILE":"3397723","DECAY_DATE":null,"COUNTRY_CODE":"US","INCLINATION":"53.0537","MEAN_ANOMALY":"310.7498","PERIAPSIS":"545.995","SEMIMAJOR_AXIS":"6925.335","NORAD_CAT_ID":"44945","MEAN_MOTION_DDOT":"0.0000000000000","ELEMENT_SET_NO":"999","TIME_SYSTEM":"UTC","BSTAR":"0.00013715000000","OBJECT_TYPE":"PAYLOAD","EPHEMERIS_TYPE":"0","RA_OF_ASC_NODE":"256.6912","EPOCH":"2022-04-11T19:00:57.266208","OBJECT_ID":"2020-001AH","ARG_OF_PERICENTER":"49.3642","MEAN_ELEMENT_THEORY":"SGP4","PERIOD":"95.592","MEAN_MOTION":"15.06404325","APOAPSIS":"548.405","ECCENTRICITY":"0.00017400","TLE_LINE2":"2 44945  53.0537 256.6912 0001740  49.3642 310.7498 15.06404325124900","LAUNCH_DATE":"2020-01-07","REV_AT_EPOCH":"12490","OBJECT_NAME":"STARLINK-1109","RCS_SIZE":"LARGE","MEAN_MOTION_DOT":"0.00001762","CLASSIFICATION_TYPE":"U"},{"EPOCH":"2022-04-11T20:05:42.522144","ECCENTRICITY":"0.00016910","APOAPSIS":"532.058","TLE_LINE2":"2 44946  53.0045 248.0218 0001691  46.3216 313.7915 15.11741995125000","PERIOD":"95.254","MEAN_ELEMENT_THEORY":"SGP4","ARG_OF_PERICENTER":"46.3216","OBJECT_ID":"2020-001AJ","MEAN_MOTION":"15.11741995","REV_AT_EPOCH":"12500","RCS_SIZE":"LARGE","OBJECT_NAME":"STARLINK-1110","LAUNCH_DATE":"2020-01-07","CLASSIFICATION_TYPE":"U","MEAN_MOTION_DOT":"0.00017245","GP_ID":"201013827","CENTER_NAME":"EARTH","TLE_LINE1":"1 44946U 20001AJ  22101.83729771  .00017245  00000-0  10148-2 0  9995","REF_FRAME":"TEME","SITE":"AFETR","PERIAPSIS":"529.721","SEMIMAJOR_AXIS":"6909.024","DECAY_DATE":null,"FILE":"3397723","MEAN_ANOMALY":"313.7915","INCLINATION":"53.0045","COUNTRY_CODE":"US","BSTAR":"0.00101480000000","EPHEMERIS_TYPE":"0","OBJECT_TYPE":"PAYLOAD","TIME_SYSTEM":"UTC","ELEMENT_SET_NO":"999","MEAN_MOTION_DDOT":"0.0000000000000","NORAD_CAT_ID":"44946","RA_OF_ASC_NODE":"248.0218"},{"NORAD_CAT_ID":"44947","MEAN_MOTION_DDOT":"0.0000000000000","TIME_SYSTEM":"UTC","ELEMENT_SET_NO":"999","BSTAR":"0.00013900000000","OBJECT_TYPE":"PAYLOAD","EPHEMERIS_TYPE":"0","RA_OF_ASC_NODE":"256.8864","TLE_LINE1":"1 44947U 20001AK  22101.74810537  .00001789  00000-0  13900-3 0  9993","SITE":"AFETR","REF_FRAME":"TEME","GP_ID":"201014077","CENTER_NAME":"EARTH","FILE":"3397723","DECAY_DATE":null,"COUNTRY_CODE":"US","MEAN_ANOMALY":"305.8450","INCLINATION":"53.0552","SEMIMAJOR_AXIS":"6925.365","PERIAPSIS":"545.982","LAUNCH_DATE":"2020-01-07","REV_AT_EPOCH":"12490","OBJECT_NAME":"STARLINK-1116","RCS_SIZE":"LARGE","MEAN_MOTION_DOT":"0.00001789","CLASSIFICATION_TYPE":"U","EPOCH":"2022-04-11T17:57:16.303968","ARG_OF_PERICENTER":"54.2706","OBJECT_ID":"2020-001AK","MEAN_ELEMENT_THEORY":"SGP4","PERIOD":"95.592","MEAN_MOTION":"15.06394560","APOAPSIS":"548.478","ECCENTRICITY":"0.00018020","TLE_LINE2":"2 44947  53.0552 256.8864 0001802  54.2706 305.8450 15.06394560124904"},{"TLE_LINE2":"2 44949  53.0545 256.4844 0001681  63.3189 296.7972 15.06397289124912","ECCENTRICITY":"0.00016810","APOAPSIS":"548.386","MEAN_MOTION":"15.06397289","PERIOD":"95.592","MEAN_ELEMENT_THEORY":"SGP4","ARG_OF_PERICENTER":"63.3189","OBJECT_ID":"2020-001AM","EPOCH":"2022-04-11T20:09:57.393504","CLASSIFICATION_TYPE":"U","MEAN_MOTION_DOT":"0.00001429","RCS_SIZE":"LARGE","OBJECT_NAME":"STARLINK-1122","REV_AT_EPOCH":"12491","LAUNCH_DATE":"2020-01-07","PERIAPSIS":"546.058","SEMIMAJOR_AXIS":"6925.357","MEAN_ANOMALY":"296.7972","INCLINATION":"53.0545","COUNTRY_CODE":"US","DECAY_DATE":null,"FILE":"3397723","CENTER_NAME":"EARTH","GP_ID":"201014829","REF_FRAME":"TEME","SITE":"AFETR","TLE_LINE1":"1 44949U 20001AM  22101.84024761  .00001429  00000-0  11485-3 0  9999","RA_OF_ASC_NODE":"256.4844","EPHEMERIS_TYPE":"0","OBJECT_TYPE":"PAYLOAD","BSTAR":"0.00011485000000","TIME_SYSTEM":"UTC","ELEMENT_SET_NO":"999","MEAN_MOTION_DDOT":"0.0000000000000","NORAD_CAT_ID":"44949"},{"TLE_LINE2":"2 44950  53.0520 256.9484 0001268  78.8801 281.2331 15.07466699124893","ECCENTRICITY":"0.00012680","APOAPSIS":"544.824","MEAN_MOTION":"15.07466699","MEAN_ELEMENT_THEORY":"SGP4","PERIOD":"95.524","ARG_OF_PERICENTER":"78.8801","OBJECT_ID":"2020-001AN","EPOCH":"2022-04-11T17:06:07.195392","CLASSIFICATION_TYPE":"U","MEAN_MOTION_DOT":"0.00018594","RCS_SIZE":"LARGE","OBJECT_NAME":"STARLINK-1125","REV_AT_EPOCH":"12489","LAUNCH_DATE":"2020-01-07","SEMIMAJOR_AXIS":"6922.081","PERIAPSIS":"543.068","MEAN_ANOMALY":"281.2331","INCLINATION":"53.0520","COUNTRY_CODE":"US","DECAY_DATE":null,"FILE":"3397723","CENTER_NAME":"EARTH","GP_ID":"201015579","REF_FRAME":"TEME","SITE":"AFETR","TLE_LINE1":"1 44950U 20001AN  22101.71258328  .00018594  00000-0  12281-2 0  9990","RA_OF_ASC_NODE":"256.9484","EPHEMERIS_TYPE":"0","OBJECT_TYPE":"PAYLOAD","BSTAR":"0.00122810000000","TIME_SYSTEM":"UTC","ELEMENT_SET_NO":"999","MEAN_MOTION_DDOT":"0.0000000000000","NORAD_CAT_ID":"44950"},{"EPOCH":"2022-04-11T17:18:59.843808","OBJECT_ID":"2020-001AP","ARG_OF_PERICENTER":"44.2332","MEAN_ELEMENT_THEORY":"SGP4","PERIOD":"95.265","MEAN_MOTION":"15.11578407","APOAPSIS":"532.462","ECCENTRICITY":"0.00015540","TLE_LINE2":"2 44951  53.0027 249.2594 0001554  44.2332 315.8782 15.11578407126260","LAUNCH_DATE":"2020-01-07","REV_AT_EPOCH":"12626","OBJECT_NAME":"STARLINK-1126","RCS_SIZE":"LARGE","MEAN_MOTION_DOT":"0.00019811","CLASSIFICATION_TYPE":"U","TLE_LINE1":"1 44951U 20001AP  22101.72152597  .00019811  00000-0  11681-2 0  9999","SITE":"AFETR","REF_FRAME":"TEME","CENTER_NAME":"EARTH","GP_ID":"201014327","FILE":"3397723","DECAY_DATE":null,"COUNTRY_CODE":"US","INCLINATION":"53.0027","MEAN_ANOMALY":"315.8782","PERIAPSIS":"530.314","SEMIMAJOR_AXIS":"6909.523","NORAD_CAT_ID":"44951","MEAN_MOTION_DDOT":"0.0000000000000","TIME_SYSTEM":"UTC","ELEMENT_SET_NO":"999","BSTAR":"0.00116810000000","OBJECT_TYPE":"PAYLOAD","EPHEMERIS_TYPE":"0","RA_OF_ASC_NODE":"249.2594"},{"PERIAPSIS":"546.057","SEMIMAJOR_AXIS":"6925.377","DECAY_DATE":null,"FILE":"3397723","INCLINATION":"53.0553","MEAN_ANOMALY":"300.3390","COUNTRY_CODE":"US","CENTER_NAME":"EARTH","GP_ID":"201014577","TLE_LINE1":"1 44952U 20001AQ  22101.82182582  .00001006  00000-0  86478-4 0  9993","REF_FRAME":"TEME","SITE":"AFETR","RA_OF_ASC_NODE":"256.5663","BSTAR":"0.00008647800000","EPHEMERIS_TYPE":"0","OBJECT_TYPE":"PAYLOAD","ELEMENT_SET_NO":"999","TIME_SYSTEM":"UTC","MEAN_MOTION_DDOT":"0.0000000000000","NORAD_CAT_ID":"44952","ECCENTRICITY":"0.00017100","APOAPSIS":"548.426","TLE_LINE2":"2 44952  53.0553 256.5663 0001710  59.7768 300.3390 15.06390852124915","PERIOD":"95.593","MEAN_ELEMENT_THEORY":"SGP4","ARG_OF_PERICENTER":"59.7768","OBJECT_ID":"2020-001AQ","MEAN_MOTION":"15.06390852","EPOCH":"2022-04-11T19:43:25.750848","CLASSIFICATION_TYPE":"U","MEAN_MOTION_DOT":"0.00001006","REV_AT_EPOCH":"12491","RCS_SIZE":"LARGE","OBJECT_NAME":"STARLINK-1117","LAUNCH_DATE":"2020-01-07"}];
